1 08820U 76039A   03048.79017609  .00000006  00000-0  10000-3 0  8963
2 08820 109.8290 140.7220 0044267 326.9422  32.8542  6.38664578369438
